STARLINK-30298          
1 57665U 23124C   25331.40247657  .00000796  00000+0  38989-4 0  9992
2 57665  53.1610 322.1834 0001318  87.9997 272.1155 15.30197872127907
STARLINK-30301          
1 57666U 23124D   25331.55533862  .00004092  00000+0  15023-3 0  9991
2 57666  53.1608  23.1376 0001293  84.3783 275.7365 15.30193741127037
STARLINK-30275          
1 57667U 23124E   25331.68270164  .00003917  00000+0  14435-3 0  9990
2 57667  53.1611 320.8850 0001801  86.9610 273.1597 15.30195370127947
STARLINK-30278          
1 57668U 23124F   25331.67742478  .00000097  00000+0  15412-4 0  9995
2 57668  53.1608 320.8798 0001162  96.7402 263.3732 15.30198334127948
STARLINK-30271          
1 57669U 23124G   25331.36455403 -.00000005  00000+0  11964-4 0  9999
2 57669  53.1613 322.3425 0001309  98.0448 262.0702 15.30187989127898
STARLINK-30322          
1 57670U 23124H   25331.68164830 -.00001058  00000+0 -23583-4 0  9997
2 57670  53.1607 320.8885 0001356  98.6576 261.4578 15.30204163127940
STARLINK-30296          
1 57671U 23124J   25331.99134838  .00003902  00000+0  14376-3 0  9994
2 57671  53.1613 319.3950 0001299 122.9680 237.1446 15.30211428127998
STARLINK-30274          
1 57672U 23124K   25331.19176703  .00000109  00000+0  15804-4 0  9998
2 57672  53.1603 323.0415 0001284  83.9805 276.1342 15.30192358127870
STARLINK-30316          
1 57673U 23124L   25331.67006819 -.00000908  00000+0 -18538-4 0  9998
2 57673  53.1615 320.9540 0000983 111.7201 248.3905 15.30186019127945
STARLINK-30317          
1 57675U 23124N   25330.58587369  .01397597  13518-2  13695-2 0  9993
2 57675  53.1299 297.3805 0001302 166.7936 193.3134 16.11125247128172
STARLINK-30313          
1 57676U 23124P   25331.39087282  .00001069  00000+0  48214-4 0  9994
2 57676  53.1621 322.1545 0001546  78.3552 281.7622 15.30193931127901
STARLINK-30303          
1 57677U 23124Q   25331.67418381 -.00001353  00000+0 -33592-4 0  9995
2 57677  53.1622 320.3345 0001068 111.4395 248.6720 15.30183677127956
STARLINK-30320          
1 57678U 23124R   25331.63786370 -.00002085  00000+0 -58264-4 0  9994
2 57678  53.1624 308.0754 0001726 116.5500 243.5677 15.30203274128122
STARLINK-30321          
1 57679U 23124S   25331.68473113 -.00001138  00000+0 -26301-4 0  9993
2 57679  53.1628 320.4011 0001541  91.2961 268.8217 15.30199383127951
STARLINK-30283          
1 57680U 23124T   25331.39719379  .00001023  00000+0  46662-4 0  9993
2 57680  53.1611 322.1306 0001263  88.2089 271.9057 15.30198697127908
STARLINK-30273          
1 57681U 23124U   25331.68796041 -.00000515  00000+0 -52600-5 0  9994
2 57681  53.1603 320.8228 0001281  90.6759 269.4388 15.30195390127949
STARLINK-30297          
1 57682U 23124V   25331.39406151 -.00004658  00000+0 -14541-3 0  9995
2 57682  53.1592 322.1722 0000939  84.5987 275.5121 15.30164017127906
STARLINK-30295          
1 57683U 23124W   25331.66795028  .00000077  00000+0  14726-4 0  9995
2 57683  53.1618 320.9524 0001162  86.3018 273.8116 15.30197529127949
STARLINK-30288          
1 57698U 23129A   25331.68842973  .00000440  00000+0  47675-4 0  9993
2 57698  43.0050 314.2939 0001166 265.9638  94.1071 15.02536487125318
STARLINK-30347          
1 57699U 23129B   25331.60571192  .00000401  00000+0  44780-4 0  9999
2 57699  43.0022 302.6048 0001030 263.7549  96.3176 15.02534173125441
STARLINK-30332          
1 57700U 23129C   25331.68509940 -.00000013  00000+0  14098-4 0  9991
2 57700  43.0065 314.2707 0001478 272.2843  87.7830 15.02538120125177
STARLINK-30345          
1 57701U 23129D   25331.67190143  .00000296  00000+0  37017-4 0  9990
2 57701  43.0041 315.0308 0001088 278.3578  81.7141 15.02534536125162
STARLINK-30333          
1 57702U 23129E   25331.66524289  .00000971  00000+0  86942-4 0  9993
2 57702  43.0046 314.9806 0001019 279.3659  80.7068 15.02534068125307
STARLINK-30336          
1 57703U 23129F   25331.66857154 -.00000023  00000+0  13406-4 0  9998
2 57703  43.0047 315.0093 0001165 269.3055  90.7654 15.02535598125165
STARLINK-30346          
1 57704U 23129G   25331.65858121  .00000040  00000+0  18041-4 0  9991
2 57704  43.0047 314.9304 0001372 272.6754  87.3931 15.02534439125165
STARLINK-30327          
1 57707U 23129K   25331.58969399  .00027320  00000+0  14310-2 0  9999
2 57707  42.9995 295.7906 0013866 132.7759 227.4257 15.15235608125386
STARLINK-30315          
1 57708U 23129L   25331.64859510  .00000837  00000+0  76991-4 0  9999
2 57708  43.0035 314.8577 0000877 251.8475 108.2272 15.02532090125303
STARLINK-30287          
1 57709U 23129M   25331.38934386 -.00000289  00000+0 -62907-5 0  9992
2 57709  43.0031 316.3556 0001272 274.1487  85.9210 15.02533923125269
STARLINK-30335          
1 57710U 23129N   25331.31952002  .00001656  00000+0  13765-3 0  9995
2 57710  43.0031 316.6849 0002364 294.3386  65.7209 15.02541832125255
STARLINK-30318          
1 57711U 23129P   25331.66190919 -.00000028  00000+0  13036-4 0  9990
2 57711  43.0048 314.9434 0001194 275.6908  84.3798 15.02534948125167
STARLINK-30348          
1 57712U 23129Q   25331.64193172  .00000433  00000+0  47124-4 0  9997
2 57712  43.0044 314.8027 0001032 272.7054  87.3670 15.02535026125308
STARLINK-30349          
1 57713U 23129R   25331.03696740  .00000830  00000+0  76489-4 0  9997
2 57713  43.0034 318.0065 0001079 274.2054  85.8665 15.02538970125076
STARLINK-30341          
1 57714U 23129S   25331.67845246 -.00001760  00000+0 -11525-3 0  9999
2 57714  43.0083 314.2206 0001806 276.2729  83.7908 15.02525005125314
STARLINK-30300          
1 57715U 23129T   25331.64526642 -.00001233  00000+0 -76223-4 0  9995
2 57715  43.0037 314.8305 0001048 276.1004  83.9719 15.02541238125300
STARLINK-30281          
1 57716U 23129U   25331.35937404  .00000328  00000+0  39345-4 0  9992
2 57716  43.0037 316.1242 0000961 270.4420  89.6312 15.02532379125126
STARLINK-30325          
1 57717U 23129V   25331.37269741  .00001489  00000+0  12526-3 0  9997
2 57717  43.0048 316.2231 0001194 256.3686 103.7023 15.02539652125267
STARLINK-30338          
1 57718U 23129W   25331.36270196 -.00000316  00000+0 -83086-5 0  9994
2 57718  43.0045 316.1511 0001233 263.9097  96.1605 15.02533892125260
STARLINK-30334          
1 57719U 23129X   25331.03364395  .00000133  00000+0  24933-4 0  9994
2 57719  43.0043 317.9818 0001080 267.8619  92.2100 15.02532009125076
STARLINK-30375          
1 57732U 23131A   25331.79738251 -.00000775  00000+0 -42279-4 0  9998
2 57732  43.0064 352.9522 0001489 272.9857  87.0815 15.02535370124752
STARLINK-30310          
1 57733U 23131B   25331.81139946  .00000173  00000+0  27906-4 0  9998
2 57733  43.0057   4.9725 0000988 273.3548  86.7181 15.02541950124617
STARLINK-30365          
1 57734U 23131C   25331.78154900  .00000458  00000+0  48965-4 0  9996
2 57734  43.0034   5.5755 0001110 274.8924  85.1791 15.02534587124590
STARLINK-30371          
1 57735U 23131D   25331.82471980 -.00000109  00000+0  70052-5 0  9999
2 57735  43.0021   5.0703 0001018 263.9486  96.1240 15.02539031124606
STARLINK-30352          
1 57736U 23131E   25331.81472936  .00000833  00000+0  76703-4 0  9992
2 57736  43.0016   4.9939 0000985 276.0250  84.0480 15.02538563124607
STARLINK-30344          
1 57737U 23131F   25331.50454532  .00001168  00000+0  10153-3 0  9999
2 57737  43.0061   6.9780 0001437 268.9356  91.1322 15.02532774124550
STARLINK-30351          
1 57738U 23131G   25331.79154035  .00000445  00000+0  48019-4 0  9996
2 57738  43.0047   5.6863 0001203 269.6319  90.4385 15.02536813124594
STARLINK-30242          
1 57739U 23131H   25332.00002315  .00032834  00000+0  24867-2 0  9995
2 57739  43.0026 338.9778 0001556 238.8562  97.4662 15.01728953  5745
STARLINK-30331          
1 57740U 23131J   25331.68013897  .00000479  00000+0  26925-4 0  9996
2 57740  43.0001 315.4999 0000713 279.3216  80.7555 15.27571378125176
STARLINK-30364          
1 57741U 23131K   25331.50898691 -.00000107  00000+0  71449-5 0  9992
2 57741  43.0025   7.0044 0001124 270.5153  89.5561 15.02530455124557
STARLINK-30308          
1 57742U 23131L   25331.45582733 -.00000607  00000+0 -29850-4 0  9998
2 57742  43.0055   7.4665 0001335 274.2187  85.8502 15.02532099124556
STARLINK-30361          
1 57743U 23131M   25331.10678961 -.00001355  00000+0 -85284-4 0  9994
2 57743  43.0032   9.1447 0001089 273.5188  86.5530 15.02533072124492
STARLINK-30363          
1 57744U 23131N   25331.79405137 -.00000249  00000+0 -33717-5 0  9999
2 57744  43.0055 352.9276 0001437 271.0940  88.9738 15.02534738124747
STARLINK-30362          
1 57745U 23131P   25331.16993672  .00000460  00000+0  49099-4 0  9999
2 57745  43.0018   8.7584 0000999 274.1252  85.9476 15.02531476124503
STARLINK-30350          
1 57746U 23131Q   25331.79820123 -.00000835  00000+0 -46685-4 0  9995
2 57746  43.0031   5.7146 0001896 286.7460  73.3174 15.02545068124594
STARLINK-30307          
1 57747U 23131R   25331.17104775 -.00000605  00000+0 -29693-4 0  9991
2 57747  43.0012   8.7663 0001340 279.9612  80.1079 15.02530544124502
STARLINK-30356          
1 57748U 23131S   25331.16327529  .00000654  00000+0  63485-4 0  9994
2 57748  43.0019   8.7092 0001150 279.4653  80.6060 15.02534017124509
STARLINK-30366          
1 57749U 23131T   25331.80807138  .00000944  00000+0  84976-4 0  9995
2 57749  43.0048   4.9461 0001428 269.5583  90.5096 15.02538630124605
STARLINK-30357          
1 57750U 23131U   25331.81806782  .00000101  00000+0  22522-4 0  9996
2 57750  43.0021   5.0208 0000811 268.9386  91.1363 15.02530885124606
STARLINK-30370          
1 57751U 23131V   25331.79073919  .00011648  00000+0  87722-3 0  9992
2 57751  43.0058 352.9396 0000986 284.8207  75.2527 15.02480528124749
STARLINK-30368          
1 57752U 23131W   25331.17992156 -.00000209  00000+0 -37960-6 0  9993
2 57752  43.0044   8.7990 0001166 271.8417  88.2292 15.02533635124506
